#dP2024  3 20  0  0  0.00000000      96 __u+U IGS20 EXT  IAC
## 2306 259200.00000000   900.00000000 60389 0.0000000000000
+  120   C06C07C08C09C10C11C12C13C14C16C19C20C21C22C23C24C25
+        C26C27C28C29C30C32C33C34C35C36C37C38C39C40C41C42C43
+        C44C45C46E02E03E04E05E07E08E09E10E11E12E13E14E15E18
+        E19E21E24E25E26E27E30E31E33E34E36G01G02G03G04G05G06
+        G07G08G09G10G11G12G13G14G15G16G17G18G19G20G21G22G23
+        G24G25G26G27G28G29G30G31G32J02J03J04R01R02R03R04R05
+        R07R08R09R11R12R13R14R15R16R17R18R19R20R21R22R24R25
+        R26  0  0  0  0  0  0  0  0  0  0  0  0  0  0  0  0
++        10 11 10 11 10  9  9  9  8 10  9  7  8  8  7  8  8
++         7  8  9  7  8  8  7  9  9  7  7 10 11 11  9  8  9
++         8  8  9  7  7  7  8  7  7  7  7  8  8  7  8  7  7
++         8  7  8  6  7  6  8  8  7  7  8  8  6  8  7  7  7
++         8  7  7  7  8  7  7  7  7  7  6  8  7  7  8  7  6
++         8  7  8  7  9  7  7  7  8  9 10  0  7  7  9  8  9
++         7  8  9  7  7  9  7  8  8  8  8 10  9  7  7  7  8
++         6  0  0  0  0  0  0  0  0  0  0  0  0  0  0  0  0
%c M  cc GPS ccc cccc cccc cccc cccc ccccc ccccc ccccc ccccc
%c cc cc ccc ccc cccc cccc cccc cccc ccccc ccccc ccccc ccccc
%f  0.0000000  0.000000000  0.00000000000  0.000000000000000
%f  0.0000000  0.000000000  0.00000000000  0.000000000000000
%i    0    0    0    0      0      0      0      0         0
%i    0    0    0    0      0      0      0      0         0
/* IAC                                ULTRA-RAPID PREDICTION
/* S/V CLOCKS ARE ALIGNED TO GNSS TIME                      
/* G:C1WC2W R:C1PC2P E:C1XC5X C:C2IC6I J:C1CC2S             
/* PCV:IGS20_2290 OL/AL:FES2004  NONE     YN ORB:CoN CLK:CoN
*  2024 03 20 23  0  0.00000000
PC06  -9257.079605  23422.923450  33846.060582    287.246980
PC07 -15512.565049  38958.387758  -5305.289732   -896.607766
PC08    146.437599  33031.347773 -26078.495917     44.839596
PC09  -1092.923036  24728.573440  34616.043169   -648.740892
PC10  -9363.371529  39615.849937 -11706.504431     36.503235
PC11 -17318.406621  -9769.746347  19647.215230    470.166823
PC12   3422.968424 -16132.968889  22547.617134   -217.008292
PC13   6196.482695  36737.257665 -19304.331469    426.187726
PC14  -9424.100413 -16730.767531 -20207.684578    452.526841
PC16 -14129.209648  21819.619503  33413.263104   -408.332047
PC19  14146.898951   7036.199819  23033.850333   -918.148806
PC20   4217.782001  22841.079271  15511.263307   -277.158070
PC21   9277.553325 -26209.034280   2216.590163   -961.425692
PC22  16558.223137 -13748.604222  17748.984966    -67.678808
PC23 -18904.101758   1631.379325  20462.707865   -776.019493
PC24 -12519.987319 -23055.061682  -9563.921224    952.177898
PC25 -22576.041086 -14318.882676   8024.710614    354.489164
PC26   3639.596536 -17870.597591 -21150.182785   -265.642530
PC27 -12888.626759  16381.222961 -18569.621418    287.514556
PC28 -25491.933752   9936.466444  -5483.176080    219.380524
PC29  24118.380636   3281.521779 -13661.365988    257.268235
PC30   7178.097845  14576.569318 -22699.971197    -41.524049
PC32  -9088.026249  26299.428922  -2245.195962   -586.579855
PC33 -14181.916506  -6999.558394 -22981.400671   -960.252565
PC34  -8865.914380 -13991.471917  22440.809131    394.491031
PC35  25207.370593 -10798.535651   5272.477386    406.408271
PC36  22172.345473  15066.291612  -7722.663266     24.994017
PC37  -4413.139471  17517.889300  21268.810285   -946.991793
PC38  -6354.947436  28878.939826 -29953.487702    143.968628
PC39 -19995.227532  20665.741463  30826.697275     -7.652566
PC40 -22619.497914  35572.666393  -3672.634160    -61.700347
PC41 -16614.065719  13050.536133 -18183.112291   -909.150661
PC42  -3141.711616 -23778.372097 -14187.055236   -446.080138
PC43 -23596.432335  -4021.174909  14312.036531     64.894156
PC44  12455.302152 -16948.499195  18340.586461    419.302947
PC45  18766.871374  -1613.532179 -20589.599083    -76.589920
PC46  13141.492894  22957.377095   8818.126096   -133.284160
PE02  16933.904874   -396.679402 -24284.477439    112.839552
PE03  24881.040158  -8606.406650  13518.423329   -101.676941
PE04 -19906.121806  21335.366758   4997.052459   -354.376937
PE05  15216.672571   8916.320515  23780.325704   4730.944818
PE07   3799.549227 -21477.384907 -19996.417731   -110.034468
PE08  20372.205446 -21035.184356  -4271.228402   -242.076767
PE09  -3989.163028  21444.154923  20024.339448   -377.704250
PE10  -4114.421749  15492.881034 -24888.546051   -610.846135
PE11   7777.832369  18056.379125 -22143.907066   3148.445001
PE12 -14136.473037  11032.644811 -23546.109668   -957.538312
PE13  -7069.744739 -17908.645598  22482.214481    -20.620930
PE14 -25401.622140  18369.424200   1492.661630     72.117827
PE15  14683.854718 -10642.479447  23404.333036    -92.373078
PE18  22049.434825  -9142.708667  -7169.852723    458.258871
PE19 -24470.929860   6724.019717 -15223.590747   -395.363538
PE21 -14820.598876 -19831.114758  16218.932329   -584.986150
PE24   3631.585157  29298.670062   1946.881813   -662.260310
PE25  14681.602728  20162.282325 -15938.645384      2.363448
PE26 -24655.758633 -14381.518946   7828.154052    402.242599
PE27  -3942.246206 -29296.322525  -1647.061311   -303.778092
PE30   9352.762894 -21210.277020 -18431.849862   -115.281398
PE31  -9130.437643  21372.346044  18327.346835    -18.756086
PE33 -27640.035030  -3135.690689 -10108.653225      9.295507
PE34  27506.346306   2700.982043  10595.526579   -101.090923
PE36  24345.368922  14591.095651  -8430.038471   -202.018772
PG01  23545.783005  11867.983729  -4818.380670    175.061585
PG02  18412.301873  13780.427815 -13030.383694   -466.997599
PG03  12054.803531  20534.554398  11751.555979    263.961925
PG04  10979.971004  10537.966923  21791.231257    319.691206
PG05  -5866.675272 -25829.792447    888.010344   -166.130656
PG06  15900.794481  -8147.214201  19756.327463    359.128667
PG07  25799.230773   5366.085200  -4451.240637    -88.888875
PG08   3280.541958  16729.160001 -20361.225835     69.060415
PG09  20158.312946  -2261.969758  17095.491164    131.573199
PG10 -11780.114813  11304.855443 -20667.177569     -1.501312
PG11   3236.542697 -14885.608261  21784.390389   -612.762974
PG12 -10365.799159 -21877.400818  10709.557651   -489.047384
PG13   7173.664503 -18882.600831 -17328.879254    635.870893
PG14  14263.683371  -7140.196908 -21187.670728    355.661201
PG15  -5460.910641 -16789.636552 -20281.809633    139.774880
PG16   -690.939933  25743.343093   5095.094751   -336.430777
PG17  22690.959738 -12352.125822  -6082.946775    712.921152
PG18 -25488.152692  -4555.673195  -6332.659010   -579.414059
PG19  20396.270694 -16489.902741   2427.789484    456.780417
PG20    856.116427 -23228.604706  13055.836996    383.196531
PG21  14245.353834  15250.415973 -16520.567931    130.564064
PG22  10935.154801 -15815.910167 -18023.748298     12.876907
PG23 -15414.705354  -2368.224549 -21503.496779    181.723698
PG24 -16232.766808 -15292.721792 -15139.788597   -449.039439
PG25 -15407.479302 -12759.611753  17259.403821    491.820350
PG26  -6518.135881  20042.151297  15792.110936    177.090339
PG27  -8663.556826  20788.740652 -14010.112286    -13.224959
PG28 -18106.712307   7571.336356  17876.033970   -171.908472
PG29 -19197.325895  -1170.369544  18309.829563   -604.261503
PG30  22247.529649  -3458.033087 -14162.208576   -416.938424
PG31  -9000.062138  12780.862087  21302.058305   -228.000319
PG32 -21137.877159  15374.526970  -3843.158135   -616.414382
PJ02 -28129.990563  25235.914341  23758.537209     -3.126177
PJ03 -31597.830957  16029.499354 -18223.480257     -0.169368
PJ04      0.000000      0.000000      0.000000     50.626029
PR01  13271.023632 -20680.465375   6825.225405     80.237637
PR02   6031.932440 -22441.728392 -10541.380333    -22.615070
PR03  -5557.707547 -11821.207320 -21867.416382     96.733968
PR04 -13530.150764   5029.184776 -20992.184819    228.469863
PR05 -14462.629964  19067.629312  -8780.445636    128.719668
PR07   6184.905024  10935.384371  22238.658471     78.394400
PR08  13694.621237  -5321.239053  20926.630541    -74.795403
PR09   6750.238158  20871.148626  13104.967812    176.468213
PR11  16151.083646   8990.984641 -17578.767725     30.599325
PR12   6719.384169  -9524.069522 -22670.724566     38.042864
PR13  -4804.854787 -19958.594153 -15161.288224    -45.490728
PR14 -15579.009192 -19858.377140   3627.720246     26.245311
PR15 -15791.117862  -7648.788450  18526.491833     81.187194
PR16  -6735.916278   9252.458183  22803.965643     24.181255
PR17 -17230.104388  -7092.299242  17444.119423     70.763594
PR18 -25319.465604   -271.429683   2839.579214    133.163893
PR19 -21851.824626   5532.608249 -11937.066467   -270.097611
PR20  -2401.482780  10343.225577 -23183.058077   -110.086740
PR21  17219.195774   7137.648185 -17404.648784    -86.148053
PR22  25460.025929    451.044844  -1632.761714    113.778399
PR24   1343.776316 -10920.196303  23027.620782    -48.559867
PR25  17051.339202   7960.522131 -17208.497852    -23.978032
PR26  13321.671751  -4305.298804  21341.977439    -29.237281
EOF
